[
    {
        "CCSDS_OMM_VERS": "3.0",
        "COMMENT": "GENERATED VIA SPACE-TRACK.ORG API",
        "CREATION_DATE": "2025-04-14T03:05:54",
        "ORIGINATOR": "18 SPCS",
        "OBJECT_NAME": "BD-19",
        "OBJECT_ID": "2015-037B",
        "CENTER_NAME": "EARTH",
        "REF_FRAME": "TEME",
        "TIME_SYSTEM": "UTC",
        "MEAN_ELEMENT_THEORY": "SGP4",
        "EPOCH": "2025-04-13T11:37:41.059200",
        "MEAN_MOTION": "1.86253960",
        "ECCENTRICITY": "0.00042610",
        "INCLINATION": "55.2406",
        "RA_OF_ASC_NODE": "316.7889",
        "ARG_OF_PERICENTER": "20.7616",
        "MEAN_ANOMALY": "339.2886",
        "EPHEMERIS_TYPE": "0",
        "CLASSIFICATION_TYPE": "U",
        "NORAD_CAT_ID": "40749",
        "ELEMENT_SET_NO": "999",
        "REV_AT_EPOCH": "6612",
        "BSTAR": "0.00000000000000",
        "MEAN_MOTION_DOT": "-0.00000067",
        "MEAN_MOTION_DDOT": "0.0000000000000",
        "SEMIMAJOR_AXIS": "27903.895",
        "PERIOD": "773.138",
        "APOAPSIS": "21537.650",
        "PERIAPSIS": "21513.870",
        "OBJECT_TYPE": "PAYLOAD",
        "RCS_SIZE": "LARGE",
        "COUNTRY_CODE": "PRC",
        "LAUNCH_DATE": "2015-07-25",
        "SITE": "XSC",
        "DECAY_DATE": null,
        "FILE": "4701263",
        "GP_ID": "285537089",
        "TLE_LINE0": "0 BD-19",
        "TLE_LINE1": "1 40749U 15037B   25103.48450300 -.00000067  00000-0  00000-0 0  9999",
        "TLE_LINE2": "2 40749  55.2406 316.7889 0004261  20.7616 339.2886  1.86253960 66129"
    }
]